0354P         2020 04 27.4190  2.002177  0.125668  133.0332  320.1291    5.2555  20201112  15.5  4.0  354P/LINEAR                                              MPC105545
0355P         2017 10 12.8144  1.712243  0.506907  336.2495   51.4381   11.0367  20201112  14.2  2.0  355P/LINEAR-NEAT                                         MPEC 2020-AA5
0356P         2017 12 17.0664  2.684803  0.354709  226.0189  160.7905    9.6356  20201112  14.0  4.0  356P/WISE                                                MPC109148
0357P         2018 05 28.8150  2.522923  0.434538    1.4168   44.5789    6.3101  20201112  15.5  4.0  357P/Hill                                                MPC114609
0358P         2018 04 11.4706  2.398470  0.238175  299.7324   85.7128   11.0573  20201112  18.0  4.0  358P/PANSTARRS                                           MPEC 2020-HN5
0359P         2017 08 21.1583  3.136642  0.323940  200.1356  149.7574   10.2657  20201112  13.5  4.0  359P/LONEOS                                              MPC110086
0360P         2017 08 19.0663  1.856334  0.498670  354.1162    2.1922   24.0983  20201112  19.5  6.0  360P/WISE                                                MPC108599
0361P         2018 07  2.1322  2.777153  0.437846  219.0935  203.2528   13.8883  20201112  10.6  4.0  361P/Spacewatch                                          MPC114609
0362P         2024 07 19.8265  2.857934  0.279757   53.6902  192.5823   15.5581  20201112  12.9  2.0  362P                                                     MPEC 2017-V13
0363P         2018 03 17.4891  1.634330  0.536574  340.4720  147.7101    5.2649  20201112  17.5  4.0  363P/Lemmon                                              MPC114609
0364P         2018 06 24.3568  0.799242  0.722388  211.9908   46.2047   12.1443  20201112  15.5  4.8  364P/PANSTARRS                                           MPC114609
0365P         2018 02 11.4790  1.348447  0.575738   66.2234   87.3801    9.8341  20201112  17.0  4.0  365P/PANSTARRS                                           MPC111775
0366P         2018 07 21.0008  2.277558  0.348440  153.1596   70.7556    8.8593  20201112  15.0  4.0  366P/Spacewatch                                          MPC114610
0367P         2018 06 21.2238  2.522175  0.280462  172.9200   58.7178    8.4633  20201112  17.5  2.0  367P/Catalina                                            MPC112395
0368P         2018 09 14.4282  2.065797  0.626220  118.7801  257.9611   15.4826  20201112  13.5  4.0  368P/NEAT                                                MPC114610
0369P         2018 10 15.0559  1.954975  0.554229   13.2039   47.3016   10.3113  20201112  13.6  4.0  369P/Hill                                                MPC114610
0370P         2018 06  9.4060  2.481812  0.614410  356.6963   55.1330   19.4008  20201112  12.8  4.0  370P/NEAT                                                MPC114610
0371P         2018 10  4.7405  2.189191  0.476442  308.4542   67.3164   17.3774  20201112  14.2  4.0  371P/LINEAR-Skiff                                        MPC114610
0372P         2018 10 21.2182  3.815954  0.152618   27.2001  325.8181    9.5098  20201112  13.5  4.0  372P/McNaught                                            MPEC 2020-K19
0373P         2019 04  8.8817  2.312596  0.392170  221.1374  231.9491   13.7595  20201112  12.5  4.0  373P/Rinner                                              MPC114610
0374P         2019 01 10.6763  2.674705  0.462357   51.5248    7.9135   10.7612  20201112  13.3  4.0  374P/Larson                                              MPC114610
0375P         2018 12 21.2137  1.896973  0.658741  119.4756  359.9440   17.3612  20201112  14.1  4.0  375P/Hill                                                MPC114610
0376P         2019 09 28.1969  2.824900  0.518078  285.1235  314.8335    1.1937  20201112  12.5  4.0  376P/Loneos                                              MPEC 2020-UR0
0377P         2020 07 11.6195  5.016754  0.252594  355.0016  226.0593    9.0226  20201112   9.5  4.0  377P/Scotti                                              MPC115888
0378P         2020 10 20.8632  3.380853  0.470320  194.0453   94.5124   19.0960  20201112  12.0  4.0  378P/McNaught                                            MPEC 2019-TG9
0379P         2019 08  1.3931  2.330025  0.339286   31.1904  183.8807   12.3984  20201112  15.0  4.0  379P/Spacewatch                                          MPC115889
0380P         2019 06  5.6703  3.037473  0.330905   89.6738  132.9737    8.2719  20201112  11.3  4.0  380P/PANSTARRS                                           MPEC 2020-KB7
0381P         2019 09 26.9716  2.265839  0.681725  173.1328  173.7817   28.3750  20201112  16.3  2.0  381P/LINEAR-Spacewatch                                   MPEC 2019-TG9
0382P         2022 04  7.3527  4.382513  0.301786  174.0420  176.5589    7.7129  20201112   8.0  4.0  382P/Larson                                              MPC115889
0383P         2019 10 26.2506  1.419391  0.599554  133.6498  207.8866   12.3211  20201112  18.0  4.0  383P/Christensen                                         MPC118844
0384P         2019 10 11.4393  1.115891  0.615403   37.6351  354.2262    7.2825  20201112  17.6  4.0  384P/Kowalski                                            MPEC 2020-UR0
0385P         2019 09 14.8028  2.567267  0.401331   44.3320  357.0667   16.8274  20201112  13.5  4.0  385P/Hill                                                MPEC 2020-C98
0386P         2020 08 19.3665  2.368254  0.416428  353.2520  134.9478   15.2295  20201112  14.5  4.0  386P/PANSTARRS                                           MPEC 2020-C98
0387P         2019 09  6.1755  1.267197  0.735999  162.7820  259.3313    8.9174  20201112  12.8  8.8  387P/Boattini                                            MPEC 2020-C98
0388P         2019 07 23.5565  2.004227  0.617958   42.3897   37.0466   23.8624  20201112  10.8  7.3  388P/Gibbs                                               MPEC 2020-HN5
0389P         2019 12 29.2360  1.663119  0.704396  249.2864  218.8503  160.0651  20201112  16.0  4.0  389P/Siding Spring                                       MPC118845
0390P         2020 03 22.2460  1.699827  0.706990  232.3460  152.2771   18.5599  20201112  12.0  4.0  390P/Gibbs                                               MPEC 2020-UR0
0391P         2018 03 19.7777  4.112115  0.120797  186.7988  124.7301   21.2762  20201112   8.0  4.0  391P/Kowalski                                            MPEC 2020-AA5
0392P         2020 03 31.8193  1.950079  0.682853   71.9866   24.8826    4.9296  20201112  14.6  4.0  392P/LINEAR                                              MPEC 2020-HN5
0393P         2019 10 24.4613  4.208917  0.120337  328.0913   36.4209   16.7940  20201112  11.0  4.0  393P/Spacewatch-Hill                                     MPEC 2020-UR0
0394P         2019 11 30.3794  2.737987  0.368061   54.5155   98.1245    8.5296  20201112  16.0  2.4  394P                                                     MPEC 2020-KB7
0395P         2021 12 31.4323  4.064566  0.377314   89.8223  223.7987    3.2795  20201112  10.0  4.0  395P/Catalina-NEAT                                       MPEC 2020-K19
0396P         2019 08 28.9261  3.982777  0.416242    8.6468  136.6613    5.4363  20201112  12.0  4.0  396P                                                     MPEC 2020-KB7
0397P         2020 06 19.2983  2.276967  0.404901   14.4061    8.2100   10.9284  20201112  12.0  4.0  397P/Lemmon                                              MPEC 2020-UR0
0398P         2020 12 26.7446  1.305683  0.582574  320.2336  127.4646   11.0152  20201112  14.9  4.0  398P/Boattini                                            MPEC 2020-UR0
0399P         2021 05 22.5577  2.096168  0.446770  214.2824  207.1478   13.3190  20201112  14.0  4.0  399P/PANSTARRS                                           MPEC 2020-UR0
0400P         2021 02 10.0842  2.103359  0.408966  238.7806  176.3985   10.9292  20201112  15.6  2.8  400P/PANSTARRS                                           MPEC 2020-UR0
0401P         2019 12  7.0752  2.423030  0.580116  309.2938  359.8908   12.8043  20201112  12.5  4.0  401P/McNaught                                            MPEC 2020-UR0
0402P         2021 12 14.8135  3.937690  0.437899  326.7671  123.0884   30.8530  20201112   8.0  4.0  402P/LINEAR                                              MPEC 2020-UR0
